FLOCK 3P-2              
1 41966U 17008U   21063.13651731  .00005430  00000-0  20524-3 0  9999
2 41966  97.3336 132.7146 0009497  94.2375 265.9950 15.27350145225044
FLOCK 3P-3              
1 41968U 17008W   21063.12411460  .00002881  00000-0  10892-3 0  9997
2 41968  97.3337 132.9523 0009565  93.4731 266.7602 15.27735410225046
FLOCK 3P-12             
1 41972U 17008AA  21062.46743041  .00003257  00000-0  12416-3 0  9993
2 41972  97.3343 132.1079 0009428  99.8126 260.4178 15.27364834225027
FLOCK 3P-11             
1 41975U 17008AD  21063.13082793  .00005682  00000-0  21471-3 0  9996
2 41975  97.3329 132.7000 0009622  96.5908 263.6427 15.27340065224898
FLOCK 3P-60             
1 41976U 17008AE  21063.16784510  .00002999  00000-0  11464-3 0  9995
2 41976  97.3351 132.9619 0009125  97.6250 262.6026 15.27339118224387
FLOCK 3P-58             
1 41977U 17008AF  21063.45629170  .00005269  00000-0  19926-3 0  9992
2 41977  97.3338 133.0734 0009420  96.9676 263.2635 15.27348001225256
FLOCK 3P-57             
1 41978U 17008AG  21063.44001180  .00005190  00000-0  19634-3 0  9996
2 41978  97.3333 133.0652 0009468  94.9445 265.2875 15.27340431225094
FLOCK 3P-70             
1 41980U 17008AJ  21063.18150780  .00005407  00000-0  20448-3 0  9997
2 41980  97.3371 133.3558 0009494  99.0661 261.1653 15.27336915225048
FLOCK 3P-86             
1 41985U 17008AP  21063.49739580  .00005534  00000-0  20829-3 0  9991
2 41985  97.3371 133.6945 0008896  99.3919 260.8326 15.27487791225097
FLOCK 3P-34             
1 41988U 17008AS  21062.98008896  .00005382  00000-0  20358-3 0  9994
2 41988  97.3349 132.7299 0009004  96.8246 263.4018 15.27334953224507
FLOCK 3P-33             
1 41990U 17008AU  21062.49245341  .00001913  00000-0  75459-4 0  9990
2 41990  97.3351 131.9812 0009009 101.0975 259.1278 15.26737573224412
LEMUR-2-JOBANPUTRA      
1 41991U 17008AV  21063.11356008  .00002888  00000-0  11523-3 0  9997
2 41991  97.3233 129.7259 0008934 104.6373 255.5857 15.25941636224373
LEMUR-2-SPIRE-MINIONS   
1 41992U 17008AW  21063.15867323  .00004266  00000-0  16101-3 0  9998
2 41992  97.3276 131.9438 0008599 100.5537 259.6672 15.27532385224503
LEMUR-2-SATCHMO         
1 41993U 17008AX  21062.81364494  .00002790  00000-0  11063-3 0  9994
2 41993  97.3237 129.8333 0008884 104.9133 255.3090 15.26177969224350
LEMUR-2-SMITA-SHARAD    
1 41994U 17008AY  21063.20113010  .00004509  00000-0  17021-3 0  9995
2 41994  97.3271 131.8218 0008680  99.0564 261.1658 15.27493511224507
LEMUR-2-RDEATON         
1 41995U 17008AZ  21063.42477118  .00002958  00000-0  11719-3 0  9996
2 41995  97.3248 130.5855 0009859 114.4807 245.7461 15.26142509225133
LEMUR-2-TACHIKOMA       
1 41996U 17008BA  21063.12648873  .00004155  00000-0  15800-3 0  9998
2 41996  97.3307 131.9407 0009513 113.1294 247.0949 15.27284198224385
LEMUR-2-NOGUECORREIG    
1 41997U 17008BB  21062.81987380  .00004380  00000-0  16483-3 0  9991
2 41997  97.3289 131.9447 0009560 112.4933 247.7319 15.27601806224458
LEMUR-2-MIA-GRACE       
1 41998U 17008BC  21063.12090893  .00002965  00000-0  11788-3 0  9991
2 41998  97.3241 130.0456 0009779 116.2362 243.9883 15.26027051224319
BGUSAT                  
1 41999U 17008BD  21063.16386180  .00005891  00000-0  21074-3 0  9993
2 41999  97.3353 134.3210 0009348 107.7630 252.4631 15.29133179224615
DIDO-2                  
1 42000U 17008BE  21063.45577148  .00001973  00000-0  81609-4 0  9993
2 42000  97.3213 129.1910 0009830 118.0052 242.2182 15.25095880224386
FLOCK 3P-49             
1 42001U 17008BF  21063.17299921  .00003559  00000-0  13475-3 0  9990
2 42001  97.3342 133.0365 0009372 111.6240 248.5999 15.27529079225062
FLOCK 3P-61             
1 42009U 17008BP  21062.49443486  .00002737  00000-0  10489-3 0  9998
2 42009  97.3341 132.2355 0009101 115.8349 244.3830 15.27334979225088
FLOCK 3P-40             
1 42010U 17008BQ  21063.14521600  .00002223  00000-0  85740-4 0  9991
2 42010  97.3336 132.7511 0009070 116.4258 243.7913 15.27317597224445
FLOCK 3P-54             
1 42014U 17008BU  21063.46569920  .00003006  00000-0  11492-3 0  9999
2 42014  97.3346 133.1961 0008570 115.2137 244.9991 15.27338973225228
PEASSS                  
1 42015U 17008BV  21063.15741147  .00002860  00000-0  11239-3 0  9995
2 42015  97.3241 131.0791 0007769 118.2192 241.9832 15.26464119224955
AL-FARABI 1             
1 42016U 17008BW  21062.49400894  .00003516  00000-0  13315-3 0  9999
2 42016  97.3285 131.9615 0007556 119.3874 240.8121 15.27547650225055
NAYIF-1 (EO-88)         
1 42017U 17008BX  21063.12029476  .00003891  00000-0  14681-3 0  9997
2 42017  97.3275 132.5855 0007641 116.9494 243.2527 15.27602582225170
FLOCK 3P-23             
1 42018U 17008BY  21062.61532494  .00003642  00000-0  13867-3 0  9999
2 42018  97.3333 132.0688 0009782  96.1201 264.1153 15.27325571223892
FLOCK 3P-76             
1 42019U 17008BZ  21063.44475634  .00005186  00000-0  19619-3 0  9990
2 42019  97.3381 133.7040 0009633  99.2210 261.0119 15.27343059225087
FLOCK 3P-32             
1 42023U 17008CD  21063.16256828  .00005281  00000-0  19956-3 0  9996
2 42023  97.3335 132.8377 0009328  95.8804 264.3499 15.27373827225214
FLOCK 3P-77             
1 42025U 17008CF  21063.15960121  .00003670  00000-0  13932-3 0  9993
2 42025  97.3363 133.3375 0009422 100.4419 259.7883 15.27419863225059
FLOCK 3P-80             
1 42026U 17008CG  21063.47078582  .00004134  00000-0  15715-3 0  9997
2 42026  97.3366 133.6671 0009131 100.3714 259.8555 15.27308593223242
FLOCK 3P-66             
1 42027U 17008CH  21063.15817603  .00002972  00000-0  11366-3 0  9994
2 42027  97.3339 132.8980 0009554 110.4803 249.7462 15.27331002225166
FLOCK 3P-65             
1 42028U 17008CJ  21062.82950869  .00002773  00000-0  10626-3 0  9997
2 42028  97.3351 132.6491 0009359 111.1638 249.0602 15.27326412225015
FLOCK 3P-50             
1 42029U 17008CK  21063.15411075  .00002699  00000-0  10347-3 0  9993
2 42029  97.3356 133.0445 0009041 111.5304 248.6900 15.27331028224381
FLOCK 3P-46             
1 42031U 17008CM  21062.43179439  .00003094  00000-0  11821-3 0  9999
2 42031  97.3335 132.1000 0009054 113.6691 246.5499 15.27331764225102
FLOCK 3P-47             
1 42032U 17008CN  21062.49462846  .00003583  00000-0  13622-3 0  9997
2 42032  97.3334 132.1738 0009001 113.5616 246.6570 15.27395378224930
FLOCK 3P-64             
1 42034U 17008CQ  21062.81906713  .00002915  00000-0  11158-3 0  9991
2 42034  97.3332 132.4796 0009011 116.2117 244.0049 15.27318112225153
FLOCK 3P-55             
1 42041U 17008CX  21063.17464862  .00002919  00000-0  11164-3 0  9994
2 42041  97.3331 132.9137 0008585 118.1022 242.1086 15.27346319225223
FLOCK 3P-87             
1 42044U 17008DA  21063.09687758  .00002570  00000-0  99663-4 0  9993
2 42044  97.3355 132.9915 0009541  99.4205 260.8113 15.26983359224523
FLOCK 3P-74             
1 42048U 17008DE  21062.79836591  .00005298  00000-0  20044-3 0  9990
2 42048  97.3376 132.9958 0009649 100.3229 259.9099 15.27329687224312
FLOCK 3P-31             
1 42049U 17008DF  21062.92260308  .00002846  00000-0  10894-3 0  9991
2 42049  97.3335 132.5481 0009288  97.9223 262.3071 15.27340459223798
TK-1                    
1 42061U 17012A   21062.81822009  .00014477  00000-0  16548-3 0  9995
2 42061  96.9603  60.3486 0015908  84.5083 275.7990 15.62106626227854
SENTINEL-2B             
1 42063U 17013A   21063.43827021  .00000020  00000-0  24261-4 0  9997
2 42063  98.5709 139.9202 0001414 100.8869 259.2476 14.30816537208556
ECHOSTAR 23             
1 42070U 17014A   21062.53556907 -.00000279  00000-0  00000-0 0  9996
2 42070   0.0237 143.7384 0001745 201.1213 301.5648  1.00268346 14567
WGS F9 (USA 275)        
1 42075U 17016A   21063.40466053 -.00000106  00000-0  00000+0 0  9990
2 42075   0.0961  97.6641 0000949 350.9772 207.5851  1.00271763 14565
SES-10                  
1 42432U 17017A   21063.17569687 -.00000283  00000-0  00000+0 0  9995
2 42432   0.0195 119.9890 0002735 232.3245 166.1617  1.00269074 14379
CHINASAT 16 (SJ-13)     
1 42662U 17018A   21057.20916412 -.00000356  00000-0  00000-0 0  9992
2 42662   0.0493  82.4557 0004962 159.4827 100.0659  1.00267226 14312
KOREASAT 7              
1 42691U 17023A   21062.86438205 -.00000371  00000-0  00000+0 0  9993
2 42691   0.0216  84.3487 0000477 261.7437 242.8069  1.00271593 14076
SGDC                    
1 42692U 17023B   21061.76136571 -.00000257  00000-0  00000-0 0  9997
2 42692   0.0126 147.2682 0002262 207.8996   4.8301  1.00269004 14055
GSAT-9                  
1 42695U 17024A   21063.06490726 -.00000296  00000-0  00000+0 0  9993
2 42695   0.0533 271.9098 0002168  71.2034 299.5827  1.00269445 14063
INMARSAT 5-F4           
1 42698U 17025A   21063.21299330  .00000065  00000-0  00000+0 0  9995
2 42698   0.0189 151.4240 0000518 262.4510 241.4555  1.00270140 13904
SES-15                  
1 42709U 17026A   21063.53982187  .00000049  00000-0  00000+0 0  9995
2 42709   0.0151  72.5616 0000575 295.2641 219.8399  1.00269943 14824
COSMOS 2518             
1 42719U 17027A   21063.12630126 -.00000225  00000-0  00000+0 0  9992
2 42719  63.1280 144.1290 6839126 265.0772  82.2348  2.00618837 27652
QZS-2 (MICHIBIKI-2)     
1 42738U 17028A   21063.43086194 -.00000134  00000-0  00000+0 0  9997
2 42738  42.5559 270.7776 0747396 270.2089 277.3299  1.00267141 13775
VIASAT-2                
1 42740U 17029A   21063.03158312 -.00000275  00000-0  00000+0 0  9995
2 42740   0.0241 245.1441 0000211 170.2123  48.0895  1.00270869 13817
EUTELSAT 172B           
1 42741U 17029B   21062.86443912 -.00000016  00000-0  00000+0 0  9992
2 42741   0.0236 224.2338 0000392 207.6493 213.1307  1.00270117 14337
GSAT-19                 
1 42747U 17031A   21063.05504959  .00000115  00000-0  00000+0 0  9991
2 42747   0.0255 247.3533 0005579 160.2996 182.0534  1.00271913 13768
